 Automated mail xmit by MAIL_REQUEST, PID=   7160 Sat Oct 11 04:53:16 2014
++++++++++++++++++++++++++++++++ (part 1 of 1)  
++++++++++++++++++++++++++++++++ +++++++++++++++++++++++++++++++

*******************************************************************************
 Revised: Dec 02, 2013           Europa / (Jupiter)                         502

 SATELLITE PHYSICAL PROPERTIES:
  Radius (km)             = 1565   +- 8     Density (g cm^-3)   =  2.99 +- 0.05
  Mass (10^20 kg )        =  479.7 +- 1.5   Geometric Albedo    =  0.6  

 SATELLITE ORBITAL DATA:
  Semi-major axis, a (km) = 671.079 (10^3)  Orbital period      = 3.551810 d
  Eccentricity, e         = 0.0101          Rotational period   = Synchronous
  Inclination, i  (deg)   = 0.464
*******************************************************************************
 
 
*******************************************************************************
Ephemeris / MAIL_REQUEST Sat Oct 11 04:53:16 2014 Pasadena, USA  / Horizons    
*******************************************************************************
Target body name: Europa (502)                    {source: JUP310}
Center body name: Sun (10)                        {source: DE-0431LE-0431}
Center-site name: BODY CENTER
*******************************************************************************
Start time      : A.D. 2014-Sep-01 10:00:00.0000 CT 
Stop  time      : A.D. 2014-Oct-01 10:00:00.0000 CT 
Step-size       : 2 steps
*******************************************************************************
Center geodetic : 0.00000000,0.00000000,0.0000000 {E-lon(deg),Lat(deg),Alt(km)} Center cylindric: 0.00000000,0.00000000,0.0000000 {E-lon(deg),Dxy(km),Dz(km)}
Center radii    : 696000.0 x 696000.0 x 696000.0 k{Equator, meridian, pole}    
Output units    : AU-D                                                         
Output format   : 03
Reference frame : ICRF/J2000.0                                                 
Output type     : GEOMETRIC cartesian states
Coordinate systm: Ecliptic and Mean Equinox of Reference Epoch                 
*******************************************************************************
JDCT ,   , X, Y, Z, VX, VY, VZ, LT, RG, RR,
*******************************************************************************
$$SOE
2456901.916666667, A.D. 2014-Sep-01 10:00:00.0000, -3.008507704055686E+00,  4.338357466258694E+00,  4.954953374942883E-02, -1.008507688649731E-02,  2.935973421517466E-03,  4.107414929854628E-04,  3.049283303368919E-02,  5.279670374815057E+00,  8.163139497885254E-03, 2456916.916666667, A.D. 2014-Sep-16 10:00:00.0000, -3.107590831173397E+00,  4.280171179607144E+00,  5.191715284628085E-02, -1.369242578823662E-02, -6.622296229323105E-03, -5.643211368953916E-05,  3.055007985758412E-02,  5.289582355110111E+00,  2.685082606584916E-03, 2456931.916666667, A.D. 2014-Oct-01 10:00:00.0000, -3.202877553124322E+00,  4.212969419882793E+00,  5.398023465941641E-02, -4.752137305629808E-03, -1.209431530673430E-02, -1.755693961991009E-04,  3.056687269682982E-02,  5.292489945092866E+00, -6.753332417092438E-03, $$EOE
*******************************************************************************
Coordinate system description:

  Ecliptic and Mean Equinox of Reference Epoch

    Reference epoch: J2000.0
    xy-plane: plane of the Earth's orbit at the reference epoch
    x-axis  : out along ascending node of instantaneous plane of the Earth's
              orbit and the Earth's mean equator at the reference epoch
    z-axis  : perpendicular to the xy-plane in the directional (+ or -) sense
              of Earth's north pole at the reference epoch.

Symbol meaning [1 au=149597870.700 km, 1 day=86400.0 s]:

    JDCT     Epoch Julian Date, Coordinate Time
      X      x-component of position vector (AU)                               
      Y      y-component of position vector (AU)                               
      Z      z-component of position vector (AU)                               
      VX     x-component of velocity vector (AU/day)                           
      VY     y-component of velocity vector (AU/day)                           
      VZ     z-component of velocity vector (AU/day)                           
      LT     One-way down-leg Newtonian light-time (day)                       
      RG     Range; distance from coordinate center (AU)                       
      RR     Range-rate; radial velocity wrt coord. center (AU/day)            

Geometric states/elements have no aberration corrections applied.

 Computations by ...
     Solar System Dynamics Group, Horizons On-Line Ephemeris System
     4800 Oak Grove Drive, Jet Propulsion Laboratory
     Pasadena, CA  91109   USA
     Information: http://ssd.jpl.nasa.gov/
     Connect    : telnet://ssd.jpl.nasa.gov:6775  (via browser)
                  telnet ssd.jpl.nasa.gov 6775    (via command-line)
     Author     : Jon.Giorgini@jpl.nasa.gov
*******************************************************************************
